{"fetched_at":"2026-07-14T06:34:21.837Z","source":"https://celestrak.org/NORAD/elements/gp.php?GROUP=oneweb&FORMAT=JSON","constellation":"oneweb","records":[{"OBJECT_NAME":"ONEWEB-0311","OBJECT_ID":"2021-075Y","EPOCH":"2026-07-13T19:48:26.770176","CLASSIFICATION_TYPE":"U","MEAN_MOTION":13.17647301,"ECCENTRICITY":0.0001745,"INCLINATION":87.9141,"RA_OF_ASC_NODE":0.5633,"ARG_OF_PERICENTER":78.4804,"MEAN_ANOMALY":281.6523,"EPHEMERIS_TYPE":0,"NORAD_CAT_ID":49097,"ELEMENT_SET_NO":999,"REV_AT_EPOCH":23713,"BSTAR":-0.00009333,"MEAN_MOTION_DOT":-2.3e-7,"MEAN_MOTION_DDOT":0},{"OBJECT_NAME":"ONEWEB-0312","OBJECT_ID":"2021-075Z","EPOCH":"2026-07-13T20:10:19.466976","CLASSIFICATION_TYPE":"U","MEAN_MOTION":13.17648085,"ECCENTRICITY":0.0002046,"INCLINATION":87.9141,"RA_OF_ASC_NODE":0.5706,"ARG_OF_PERICENTER":85.5448,"MEAN_ANOMALY":274.5917,"EPHEMERIS_TYPE":0,"NORAD_CAT_ID":49098,"ELEMENT_SET_NO":999,"REV_AT_EPOCH":23711,"BSTAR":-0.000024646,"MEAN_MOTION_DOT":3e-8,"MEAN_MOTION_DDOT":0},{"OBJECT_NAME":"ONEWEB-0313","OBJECT_ID":"2021-075AA","EPOCH":"2026-07-13T20:17:24.187776","CLASSIFICATION_TYPE":"U","MEAN_MOTION":13.17649672,"ECCENTRICITY":0.0001823,"INCLINATION":87.9138,"RA_OF_ASC_NODE":0.574,"ARG_OF_PERICENTER":88.078,"MEAN_ANOMALY":272.056,"EPHEMERIS_TYPE":0,"NORAD_CAT_ID":49099,"ELEMENT_SET_NO":999,"REV_AT_EPOCH":23710,"BSTAR":-0.000090852,"MEAN_MOTION_DOT":-2.2e-7,"MEAN_MOTION_DDOT":0},{"OBJECT_NAME":"ONEWEB-0314","OBJECT_ID":"2021-075AB","EPOCH":"2026-07-13T12:11:36.516192","CLASSIFICATION_TYPE":"U","MEAN_MOTION":13.17650335,"ECCENTRICITY":0.00020596,"INCLINATION":87.9151,"RA_OF_ASC_NODE":0.6171,"ARG_OF_PERICENTER":82.9922,"MEAN_ANOMALY":277.1444,"EPHEMERIS_TYPE":0,"NORAD_CAT_ID":49100,"ELEMENT_SET_NO":999,"REV_AT_EPOCH":23703,"BSTAR":-0.00013438605,"MEAN_MOTION_DOT":-3.9e-7,"MEAN_MOTION_DDOT":0},{"OBJECT_NAME":"ONEWEB-0315","OBJECT_ID":"2021-075AC","EPOCH":"2026-07-13T19:34:00.018336","CLASSIFICATION_TYPE":"U","MEAN_MOTION":13.12441436,"ECCENTRICITY":0.0001608,"INCLINATION":87.8968,"RA_OF_ASC_NODE":345.3506,"ARG_OF_PERICENTER":87.3189,"MEAN_ANOMALY":272.8124,"EPHEMERIS_TYPE":0,"NORAD_CAT_ID":49101,"ELEMENT_SET_NO":999,"REV_AT_EPOCH":23866,"BSTAR":-0.00021171,"MEAN_MOTION_DOT":-6.3e-7,"MEAN_MOTION_DDOT":0},{"OBJECT_NAME":"ONEWEB-0316","OBJECT_ID":"2021-075AD","EPOCH":"2026-07-13T18:59:54.519072","CLASSIFICATION_TYPE":"U","MEAN_MOTION":13.186857,"ECCENTRICITY":0.0001969,"INCLINATION":87.9189,"RA_OF_ASC_NODE":330.1648,"ARG_OF_PERICENTER":98.7999,"MEAN_ANOMALY":261.3356,"EPHEMERIS_TYPE":0,"NORAD_CAT_ID":49102,"ELEMENT_SET_NO":999,"REV_AT_EPOCH":24071,"BSTAR":-0.0000076244,"MEAN_MOTION_DOT":1e-7,"MEAN_MOTION_DDOT":0},{"OBJECT_NAME":"ONEWEB-0317","OBJECT_ID":"2021-075AE","EPOCH":"2026-07-13T19:38:52.757088","CLASSIFICATION_TYPE":"U","MEAN_MOTION":13.12441378,"ECCENTRICITY":0.000242,"INCLINATION":87.8964,"RA_OF_ASC_NODE":345.3733,"ARG_OF_PERICENTER":108.5997,"MEAN_ANOMALY":251.5395,"EPHEMERIS_TYPE":0,"NORAD_CAT_ID":49103,"ELEMENT_SET_NO":999,"REV_AT_EPOCH":23868,"BSTAR":-0.00064639,"MEAN_MOTION_DOT":-0.0000022,"MEAN_MOTION_DDOT":0},{"OBJECT_NAME":"ONEWEB-0318","OBJECT_ID":"2021-075AF","EPOCH":"2026-07-13T20:44:07.039968","CLASSIFICATION_TYPE":"U","MEAN_MOTION":13.18686455,"ECCENTRICITY":0.0001797,"INCLINATION":87.9194,"RA_OF_ASC_NODE":330.1524,"ARG_OF_PERICENTER":93.4609,"MEAN_ANOMALY":266.6729,"EPHEMERIS_TYPE":0,"NORAD_CAT_ID":49104,"ELEMENT_SET_NO":999,"REV_AT_EPOCH":24068,"BSTAR":-0.000019993,"MEAN_MOTION_DOT":5e-8,"MEAN_MOTION_DDOT":0},{"OBJECT_NAME":"ONEWEB-0319","OBJECT_ID":"2021-075AG","EPOCH":"2026-07-13T19:50:52.316160","CLASSIFICATION_TYPE":"U","MEAN_MOTION":13.17647813,"ECCENTRICITY":0.0001562,"INCLINATION":87.9144,"RA_OF_ASC_NODE":0.5677,"ARG_OF_PERICENTER":78.0423,"MEAN_ANOMALY":282.0884,"EPHEMERIS_TYPE":0,"NORAD_CAT_ID":49105,"ELEMENT_SET_NO":999,"REV_AT_EPOCH":23711,"BSTAR":0.000080824,"MEAN_MOTION_DOT":4.4e-7,"MEAN_MOTION_DDOT":0},{"OBJECT_NAME":"ONEWEB-0323","OBJECT_ID":"2021-075AH","EPOCH":"2026-07-13T21:01:50.140128","CLASSIFICATION_TYPE":"U","MEAN_MOTION":13.12442031,"ECCENTRICITY":0.0001689,"INCLINATION":87.8971,"RA_OF_ASC_NODE":345.3432,"ARG_OF_PERICENTER":76.795,"MEAN_ANOMALY":283.3367,"EPHEMERIS_TYPE":0,"NORAD_CAT_ID":49106,"ELEMENT_SET_NO":999,"REV_AT_EPOCH":23805,"BSTAR":0.00091103,"MEAN_MOTION_DOT":0.0000034,"MEAN_MOTION_DDOT":0},{"OBJECT_NAME":"ONEWEB-0329","OBJECT_ID":"2021-075AJ","EPOCH":"2026-07-13T20:03:00.726912","CLASSIFICATION_TYPE":"U","MEAN_MOTION":13.17650462,"ECCENTRICITY":0.0001938,"INCLINATION":87.9146,"RA_OF_ASC_NODE":0.5671,"ARG_OF_PERICENTER":88.1657,"MEAN_ANOMALY":271.9696,"EPHEMERIS_TYPE":0,"NORAD_CAT_ID":49107,"ELEMENT_SET_NO":999,"REV_AT_EPOCH":23709,"BSTAR":0.000040317,"MEAN_MOTION_DOT":2.9e-7,"MEAN_MOTION_DDOT":0},{"OBJECT_NAME":"ONEWEB-0330","OBJECT_ID":"2021-075AK","EPOCH":"2026-07-13T12:50:39.916608","CLASSIFICATION_TYPE":"U","MEAN_MOTION":13.17646811,"ECCENTRICITY":0.0002006,"INCLINATION":87.9143,"RA_OF_ASC_NODE":0.6377,"ARG_OF_PERICENTER":89.2576,"MEAN_ANOMALY":270.8786,"EPHEMERIS_TYPE":0,"NORAD_CAT_ID":49108,"ELEMENT_SET_NO":999,"REV_AT_EPOCH":23709,"BSTAR":0.00016672,"MEAN_MOTION_DOT":7.8e-7,"MEAN_MOTION_DDOT":0},{"OBJECT_NAME":"ONEWEB-0292","OBJECT_ID":"2021-083A","EPOCH":"2026-07-13T19:51:54.150912","CLASSIFICATION_TYPE":"U","MEAN_MOTION":13.13470025,"ECCENTRICITY":0.0001817,"INCLINATION":87.8974,"RA_OF_ASC_NODE":314.9362,"ARG_OF_PERICENTER":97.1012,"MEAN_ANOMALY":263.0323,"EPHEMERIS_TYPE":0,"NORAD_CAT_ID":49186,"ELEMENT_SET_NO":999,"REV_AT_EPOCH":23442,"BSTAR":-0.00083363,"MEAN_MOTION_DOT":-0.00000292,"MEAN_MOTION_DDOT":0},{"OBJECT_NAME":"ONEWEB-0303","OBJECT_ID":"2021-083B","EPOCH":"2026-07-13T20:39:14.537088","CLASSIFICATION_TYPE":"U","MEAN_MOTION":13.18684291,"ECCENTRICITY":0.0001805,"INCLINATION":87.9193,"RA_OF_ASC_NODE":330.1515,"ARG_OF_PERICENTER":93.5743,"MEAN_ANOMALY":266.5596,"EPHEMERIS_TYPE":0,"NORAD_CAT_ID":49187,"ELEMENT_SET_NO":999,"REV_AT_EPOCH":23349,"BSTAR":-0.000009232,"MEAN_MOTION_DOT":9e-8,"MEAN_MOTION_DDOT":0},{"OBJECT_NAME":"ONEWEB-0306","OBJECT_ID":"2021-083C","EPOCH":"2026-07-13T20:24:41.380416","CLASSIFICATION_TYPE":"U","MEAN_MOTION":13.18684605,"ECCENTRICITY":0.0002101,"INCLINATION":87.9198,"RA_OF_ASC_NODE":330.1428,"ARG_OF_PERICENTER":101.9658,"MEAN_ANOMALY":258.171,"EPHEMERIS_TYPE":0,"NORAD_CAT_ID":49188,"ELEMENT_SET_NO":999,"REV_AT_EPOCH":23353,"BSTAR":-0.00020389,"MEAN_MOTION_DOT":-6.7e-7,"MEAN_MOTION_DDOT":0},{"OBJECT_NAME":"ONEWEB-0307","OBJECT_ID":"2021-083D","EPOCH":"2026-07-13T19:43:21.449856","CLASSIFICATION_TYPE":"U","MEAN_MOTION":13.13468407,"ECCENTRICITY":0.0001921,"INCLINATION":87.8976,"RA_OF_ASC_NODE":314.935,"ARG_OF_PERICENTER":96.7028,"MEAN_ANOMALY":263.432,"EPHEMERIS_TYPE":0,"NORAD_CAT_ID":49189,"ELEMENT_SET_NO":999,"REV_AT_EPOCH":23442,"BSTAR":-0.00082209,"MEAN_MOTION_DOT":-0.00000287,"MEAN_MOTION_DDOT":0}]}
