ONEWEB-0311             
1 49097U 21075Y   26194.82530984 -.00000023  00000+0 -93330-4 0  9993
2 49097  87.9141   0.5633 0001745  78.4804 281.6523 13.17647301237132
ONEWEB-0312             
1 49098U 21075Z   26194.84050309  .00000003  00000+0 -24646-4 0  9995
2 49098  87.9141   0.5706 0002046  85.5448 274.5917 13.17648085237118
ONEWEB-0313             
1 49099U 21075AA  26194.84541884 -.00000022  00000+0 -90852-4 0  9993
2 49099  87.9138   0.5740 0001823  88.0780 272.0560 13.17649672237101
ONEWEB-0314             
1 49100U 21075AB  26194.50806153 -.00000039  00000+0 -13439-3 0  9995
2 49100  87.9151   0.6171 0002059  82.9922 277.1444 13.17650335237038
ONEWEB-0315             
1 49101U 21075AC  26194.81527799 -.00000063  00000+0 -21171-3 0  9995
2 49101  87.8968 345.3506 0001608  87.3189 272.8124 13.12441436238660
ONEWEB-0316             
1 49102U 21075AD  26194.79160323  .00000010  00000+0 -76244-5 0  9993
2 49102  87.9189 330.1648 0001969  98.7999 261.3356 13.18685700240710
ONEWEB-0317             
1 49103U 21075AE  26194.81866617 -.00000220  00000+0 -64639-3 0  9993
2 49103  87.8964 345.3733 0002420 108.5997 251.5395 13.12441378238687
ONEWEB-0318             
1 49104U 21075AF  26194.86397037  .00000005  00000+0 -19993-4 0  9998
2 49104  87.9194 330.1524 0001797  93.4609 266.6729 13.18686455240686
ONEWEB-0319             
1 49105U 21075AG  26194.82699440  .00000044  00000+0  80824-4 0  9991
2 49105  87.9144   0.5677 0001562  78.0423 282.0884 13.17647813237114
ONEWEB-0323             
1 49106U 21075AH  26194.87627477  .00000340  00000+0  91103-3 0  9998
2 49106  87.8971 345.3432 0001689  76.7950 283.3367 13.12442031238055
ONEWEB-0329             
1 49107U 21075AJ  26194.83542508  .00000029  00000+0  40317-4 0  9992
2 49107  87.9146   0.5671 0001938  88.1657 271.9696 13.17650462237099
ONEWEB-0330             
1 49108U 21075AK  26194.53518422  .00000078  00000+0  16672-3 0  9998
2 49108  87.9143   0.6377 0002006  89.2576 270.8786 13.17646811237091
ONEWEB-0292             
1 49186U 21083A   26194.82771008 -.00000292  00000+0 -83363-3 0  9997
2 49186  87.8974 314.9362 0001817  97.1012 263.0323 13.13470025234428
ONEWEB-0303             
1 49187U 21083B   26194.86058492  .00000009  00000+0 -92320-5 0  9997
2 49187  87.9193 330.1515 0001805  93.5743 266.5596 13.18684291233494
ONEWEB-0306             
1 49188U 21083C   26194.85047894 -.00000067  00000+0 -20389-3 0  9990
2 49188  87.9198 330.1428 0002101 101.9658 258.1710 13.18684605233531
ONEWEB-0307             
1 49189U 21083D   26194.82177604 -.00000287  00000+0 -82209-3 0  9994
2 49189  87.8976 314.9350 0001921  96.7028 263.4320 13.13468407234420
